CUTE-1 (CO-55)          
1 27844U 03031E   26061.96016478  .00000415  00000+0  19885-3 0  9991
2 27844  98.6778  71.8426 0010458 130.0831 230.1266 14.24259384176550
CUBESAT XI-IV (CO-57)   
1 27848U 03031J   26061.96597561  .00000349  00000+0  17234-3 0  9994
2 27848  98.6808  71.6462 0010091 146.6500 213.5316 14.23555571176260
CUBESAT XI-V            
1 28895U 05043F   26061.85173583  .00002468  00000+0  39841-3 0  9996
2 28895  98.2814 215.3472 0014356 178.8167 181.3076 14.72281718 86109
CUTE-1.7+APD II (CO-65) 
1 32785U 08021C   26062.14583151  .00008575  00000+0  55688-3 0  9999
2 32785  97.8194  41.5004 0010305  38.7963 321.4002 15.08255715969201
CANX-2                  
1 32790U 08021H   26061.92437846  .00006050  00000+0  43349-3 0  9996
2 32790  97.8552  39.7625 0012259  50.8222 309.4090 15.04706593968827
SEEDS II (CO-66)        
1 32791U 08021J   26061.91817894  .00024160  00000+0  86611-3 0  9992
2 32791  97.7504  55.0685 0002722  18.9486 341.1853 15.28722011971038
SWISSCUBE               
1 35932U 09051B   26062.18210353  .00001468  00000+0  30096-3 0  9995
2 35932  98.4106 328.2095 0006633 172.0833 188.0473 14.62237116873667
BEESAT-1                
1 35933U 09051C   26061.72684062  .00001272  00000+0  26627-3 0  9995
2 35933  98.4036 327.6002 0004824 184.8887 175.2267 14.61513291873637
ITUPSAT1                
1 35935U 09051E   26062.17322241  .00001119  00000+0  24205-3 0  9995
2 35935  98.4124 327.3548 0006838 199.3753 160.7188 14.60250598873266
TISAT 1                 
1 36799U 10035E   26061.81287160  .00025810  00000+0  96804-3 0  9996
2 36799  98.0646 359.3470 0000179 143.8613 216.2636 15.27224236851445
AEROCUBE 4.5A           
1 38767U 12048K   26062.12630078  .00098054  00000+0  11183-2 0  9990
2 38767  64.6376  42.8859 0041867 214.2741 145.5701 15.60602915355964
STRAND-1                
1 39090U 13009E   26062.08921195  .00000441  00000+0  16299-3 0  9993
2 39090  98.3881 244.9451 0008639 181.0314 179.0856 14.37087667681823
BRITE-AUSTRIA           
1 39091U 13009F   26062.05707686  .00000281  00000+0  11028-3 0  9995
2 39091  98.3949 244.1306 0009968 190.8644 169.2329 14.36491289681813
NEE-01 PEGASO           
1 39151U 13018B   26061.93140828  .00005045  00000+0  48994-3 0  9992
2 39151  98.1033 202.7192 0013546 150.3280 209.8710 14.93025625694841
POPACS 2                
1 39269U 13055E   26061.98472707  .00028067  00000+0  49174-3 0  9992
2 39269  80.9892 265.4682 0431962 174.2499 186.3923 14.87389598647406
POPACS 3                
1 39270U 13055F   26061.24760007  .00018351  00000+0  44171-3 0  9993
2 39270  81.0063 344.9571 0561688  35.2955 328.4100 14.53690183623006
ZACUBE-1 (TSHEPISOSAT)  
1 39417U 13066B   26061.86043747  .00006102  00000+0  48380-3 0  9998
2 39417  97.8182  23.6506 0041554 243.0931 116.6044 15.00236927664782
